PROGRESS-MS 32          
1 65586U 25204A   25337.05982217  .00011670  00000+0  21765-3 0  9995
2 65586  51.6309 190.4017 0003620 198.7080 161.3776 15.49262423   270
CYGNUS NG-23            
1 65616U 25208A   25337.05982217  .00011670  00000+0  21765-3 0  9993
2 65616  51.6309 190.4017 0003620 198.7080 161.3776 15.49262423   229
DRAGONFLY               
1 65729U 98067XH  25336.99954550  .00158902  00000+0  13752-2 0  9998
2 65729  51.6251 185.4963 0006565 216.9941 143.0603 15.68122428 11638
1998-067XJ              
1 65730U 98067XJ  25336.82362581  .06330363  11931-4  22859-2 0  9996
2 65730  51.6061 180.4655 0010114 256.3912 103.5981 16.23931094 11687
1998-067XK              
1 65731U 98067XK  25337.28118639  .00095650  00000+0  10076-2 0  9990
2 65731  51.6280 185.1389 0005850 190.2066 169.8810 15.63465607 11663
RSP-03                  
1 65732U 98067XL  25337.49292750  .00124067  00000+0  11877-2 0  9996
2 65732  51.6268 183.5455 0006714 194.5312 165.5491 15.65753404 11718
GHS-01                  
1 65733U 98067XM  25336.83887637  .00180652  00000+0  14391-2 0  9994
2 65733  51.6280 185.9293 0006994 215.3541 144.6993 15.70056093 11626
YOTSUBA-KULOVER         
1 65941U 98067XN  25336.90264589  .00073507  00000+0  96885-3 0  9997
2 65941  51.6283 189.3568 0002161 168.1115 191.9929 15.57747884  8324
BOTAN                   
1 65942U 98067XP  25336.99107280  .00108801  00000+0  12911-2 0  9994
2 65942  51.6288 188.4479 0004431 171.5775 188.5294 15.60340743  8349
E-KAGAKU-1              
1 65943U 98067XQ  25336.90248775  .00073283  00000+0  96702-3 0  9997
2 65943  51.6296 189.3580 0003520 147.4331 212.6879 15.57714998  8329
HRC MONOBLOCK CAMERA    
1 66052U 98067XR  25337.32459894  .00040058  00000+0  62970-3 0  9996
2 66052  51.6293 188.4201 0004389 146.7187 213.4080 15.53212477  7371
HTV-X1                  
1 66174U 25241A   25337.05982217  .00011670  00000+0  21765-3 0  9990
2 66174  51.6309 190.4017 0003620 198.7080 161.3776 15.49262423   511
