CCSDS_OMM_VERS = 2.0
CREATION_DATE  = 
ORIGINATOR     = 

OBJECT_NAME    = PROGRESS-MS 32
OBJECT_ID      = 2025-204A
CENTER_NAME    = EARTH
REF_FRAME      = TEME
TIME_SYSTEM    = UTC
MEAN_ELEMENT_THEORY = SGP/SGP4

EPOCH          = 2025-12-03T01:26:08.635488
MEAN_MOTION    = 15.49262423
ECCENTRICITY   = .00036204
INCLINATION    = 51.6309
RA_OF_ASC_NODE = 190.4017
ARG_OF_PERICENTER = 198.7080
MEAN_ANOMALY   = 161.3776

EPHEMERIS_TYPE = 0
CLASSIFICATION_TYPE = U
NORAD_CAT_ID   = 65586
ELEMENT_SET_NO = 999
REV_AT_EPOCH   = 27
BSTAR          = .21764811E-3
MEAN_MOTION_DOT = .1167E-3
MEAN_MOTION_DDOT = 0

CCSDS_OMM_VERS = 2.0
CREATION_DATE  = 
ORIGINATOR     = 

OBJECT_NAME    = CYGNUS NG-23
OBJECT_ID      = 2025-208A
CENTER_NAME    = EARTH
REF_FRAME      = TEME
TIME_SYSTEM    = UTC
MEAN_ELEMENT_THEORY = SGP/SGP4

EPOCH          = 2025-12-03T01:26:08.635488
MEAN_MOTION    = 15.49262423
ECCENTRICITY   = .00036204
INCLINATION    = 51.6309
RA_OF_ASC_NODE = 190.4017
ARG_OF_PERICENTER = 198.7080
MEAN_ANOMALY   = 161.3776

EPHEMERIS_TYPE = 0
CLASSIFICATION_TYPE = U
NORAD_CAT_ID   = 65616
ELEMENT_SET_NO = 999
REV_AT_EPOCH   = 22
BSTAR          = .21764811E-3
MEAN_MOTION_DOT = .1167E-3
MEAN_MOTION_DDOT = 0

CCSDS_OMM_VERS = 2.0
CREATION_DATE  = 
ORIGINATOR     = 

OBJECT_NAME    = DRAGONFLY
OBJECT_ID      = 1998-067XH
CENTER_NAME    = EARTH
REF_FRAME      = TEME
TIME_SYSTEM    = UTC
MEAN_ELEMENT_THEORY = SGP/SGP4

EPOCH          = 2025-12-02T23:59:20.731200
MEAN_MOTION    = 15.68122428
ECCENTRICITY   = .00065658
INCLINATION    = 51.6251
RA_OF_ASC_NODE = 185.4963
ARG_OF_PERICENTER = 216.9941
MEAN_ANOMALY   = 143.0603

EPHEMERIS_TYPE = 0
CLASSIFICATION_TYPE = U
NORAD_CAT_ID   = 65729
ELEMENT_SET_NO = 999
REV_AT_EPOCH   = 1163
BSTAR          = .1375183E-2
MEAN_MOTION_DOT = .158902E-2
MEAN_MOTION_DDOT = 0

CCSDS_OMM_VERS = 2.0
CREATION_DATE  = 
ORIGINATOR     = 

OBJECT_NAME    = 1998-067XJ
OBJECT_ID      = 1998-067XJ
CENTER_NAME    = EARTH
REF_FRAME      = TEME
TIME_SYSTEM    = UTC
MEAN_ELEMENT_THEORY = SGP/SGP4

EPOCH          = 2025-12-02T19:46:01.269984
MEAN_MOTION    = 16.23931094
ECCENTRICITY   = .00101147
INCLINATION    = 51.6061
RA_OF_ASC_NODE = 180.4655
ARG_OF_PERICENTER = 256.3912
MEAN_ANOMALY   = 103.5981

EPHEMERIS_TYPE = 0
CLASSIFICATION_TYPE = U
NORAD_CAT_ID   = 65730
ELEMENT_SET_NO = 999
REV_AT_EPOCH   = 1168
BSTAR          = .2285911E-2
MEAN_MOTION_DOT = .6330363E-1
MEAN_MOTION_DDOT = .11931217E-4

CCSDS_OMM_VERS = 2.0
CREATION_DATE  = 
ORIGINATOR     = 

OBJECT_NAME    = 1998-067XK
OBJECT_ID      = 1998-067XK
CENTER_NAME    = EARTH
REF_FRAME      = TEME
TIME_SYSTEM    = UTC
MEAN_ELEMENT_THEORY = SGP/SGP4

EPOCH          = 2025-12-03T06:44:54.504096
MEAN_MOTION    = 15.63465607
ECCENTRICITY   = .000585
INCLINATION    = 51.6280
RA_OF_ASC_NODE = 185.1389
ARG_OF_PERICENTER = 190.2066
MEAN_ANOMALY   = 169.8810

EPHEMERIS_TYPE = 0
CLASSIFICATION_TYPE = U
NORAD_CAT_ID   = 65731
ELEMENT_SET_NO = 999
REV_AT_EPOCH   = 1166
BSTAR          = .10076E-2
MEAN_MOTION_DOT = .9565E-3
MEAN_MOTION_DDOT = 0

CCSDS_OMM_VERS = 2.0
CREATION_DATE  = 
ORIGINATOR     = 

OBJECT_NAME    = RSP-03
OBJECT_ID      = 1998-067XL
CENTER_NAME    = EARTH
REF_FRAME      = TEME
TIME_SYSTEM    = UTC
MEAN_ELEMENT_THEORY = SGP/SGP4

EPOCH          = 2025-12-03T11:49:48.936000
MEAN_MOTION    = 15.65753404
ECCENTRICITY   = .0006714
INCLINATION    = 51.6268
RA_OF_ASC_NODE = 183.5455
ARG_OF_PERICENTER = 194.5312
MEAN_ANOMALY   = 165.5491

EPHEMERIS_TYPE = 0
CLASSIFICATION_TYPE = U
NORAD_CAT_ID   = 65732
ELEMENT_SET_NO = 999
REV_AT_EPOCH   = 1171
BSTAR          = .11877E-2
MEAN_MOTION_DOT = .124067E-2
MEAN_MOTION_DDOT = 0

CCSDS_OMM_VERS = 2.0
CREATION_DATE  = 
ORIGINATOR     = 

OBJECT_NAME    = GHS-01
OBJECT_ID      = 1998-067XM
CENTER_NAME    = EARTH
REF_FRAME      = TEME
TIME_SYSTEM    = UTC
MEAN_ELEMENT_THEORY = SGP/SGP4

EPOCH          = 2025-12-02T20:07:58.918368
MEAN_MOTION    = 15.70056093
ECCENTRICITY   = .00069943
INCLINATION    = 51.6280
RA_OF_ASC_NODE = 185.9293
ARG_OF_PERICENTER = 215.3541
MEAN_ANOMALY   = 144.6993

EPHEMERIS_TYPE = 0
CLASSIFICATION_TYPE = U
NORAD_CAT_ID   = 65733
ELEMENT_SET_NO = 999
REV_AT_EPOCH   = 1162
BSTAR          = .14391205E-2
MEAN_MOTION_DOT = .180652E-2
MEAN_MOTION_DDOT = 0

CCSDS_OMM_VERS = 2.0
CREATION_DATE  = 
ORIGINATOR     = 

OBJECT_NAME    = YOTSUBA-KULOVER
OBJECT_ID      = 1998-067XN
CENTER_NAME    = EARTH
REF_FRAME      = TEME
TIME_SYSTEM    = UTC
MEAN_ELEMENT_THEORY = SGP/SGP4

EPOCH          = 2025-12-02T21:39:48.604896
MEAN_MOTION    = 15.57747884
ECCENTRICITY   = .00021615
INCLINATION    = 51.6283
RA_OF_ASC_NODE = 189.3568
ARG_OF_PERICENTER = 168.1115
MEAN_ANOMALY   = 191.9929

EPHEMERIS_TYPE = 0
CLASSIFICATION_TYPE = U
NORAD_CAT_ID   = 65941
ELEMENT_SET_NO = 999
REV_AT_EPOCH   = 832
BSTAR          = .9688527E-3
MEAN_MOTION_DOT = .73507E-3
MEAN_MOTION_DDOT = 0

CCSDS_OMM_VERS = 2.0
CREATION_DATE  = 
ORIGINATOR     = 

OBJECT_NAME    = BOTAN
OBJECT_ID      = 1998-067XP
CENTER_NAME    = EARTH
REF_FRAME      = TEME
TIME_SYSTEM    = UTC
MEAN_ELEMENT_THEORY = SGP/SGP4

EPOCH          = 2025-12-02T23:47:08.689920
MEAN_MOTION    = 15.60340743
ECCENTRICITY   = .00044311
INCLINATION    = 51.6288
RA_OF_ASC_NODE = 188.4479
ARG_OF_PERICENTER = 171.5775
MEAN_ANOMALY   = 188.5294

EPHEMERIS_TYPE = 0
CLASSIFICATION_TYPE = U
NORAD_CAT_ID   = 65942
ELEMENT_SET_NO = 999
REV_AT_EPOCH   = 834
BSTAR          = .1291095E-2
MEAN_MOTION_DOT = .108801E-2
MEAN_MOTION_DDOT = 0

CCSDS_OMM_VERS = 2.0
CREATION_DATE  = 
ORIGINATOR     = 

OBJECT_NAME    = E-KAGAKU-1
OBJECT_ID      = 1998-067XQ
CENTER_NAME    = EARTH
REF_FRAME      = TEME
TIME_SYSTEM    = UTC
MEAN_ELEMENT_THEORY = SGP/SGP4

EPOCH          = 2025-12-02T21:39:34.941600
MEAN_MOTION    = 15.57714998
ECCENTRICITY   = .00035202
INCLINATION    = 51.6296
RA_OF_ASC_NODE = 189.3580
ARG_OF_PERICENTER = 147.4331
MEAN_ANOMALY   = 212.6879

EPHEMERIS_TYPE = 0
CLASSIFICATION_TYPE = U
NORAD_CAT_ID   = 65943
ELEMENT_SET_NO = 999
REV_AT_EPOCH   = 832
BSTAR          = .96701912E-3
MEAN_MOTION_DOT = .73283E-3
MEAN_MOTION_DDOT = 0

CCSDS_OMM_VERS = 2.0
CREATION_DATE  = 
ORIGINATOR     = 

OBJECT_NAME    = HRC MONOBLOCK CAMERA
OBJECT_ID      = 1998-067XR
CENTER_NAME    = EARTH
REF_FRAME      = TEME
TIME_SYSTEM    = UTC
MEAN_ELEMENT_THEORY = SGP/SGP4

EPOCH          = 2025-12-03T07:47:25.348416
MEAN_MOTION    = 15.53212477
ECCENTRICITY   = .0004389
INCLINATION    = 51.6293
RA_OF_ASC_NODE = 188.4201
ARG_OF_PERICENTER = 146.7187
MEAN_ANOMALY   = 213.4080

EPHEMERIS_TYPE = 0
CLASSIFICATION_TYPE = U
NORAD_CAT_ID   = 66052
ELEMENT_SET_NO = 999
REV_AT_EPOCH   = 737
BSTAR          = .6297E-3
MEAN_MOTION_DOT = .40058E-3
MEAN_MOTION_DDOT = 0

CCSDS_OMM_VERS = 2.0
CREATION_DATE  = 
ORIGINATOR     = 

OBJECT_NAME    = HTV-X1
OBJECT_ID      = 2025-241A
CENTER_NAME    = EARTH
REF_FRAME      = TEME
TIME_SYSTEM    = UTC
MEAN_ELEMENT_THEORY = SGP/SGP4

EPOCH          = 2025-12-03T01:26:08.635488
MEAN_MOTION    = 15.49262423
ECCENTRICITY   = .00036204
INCLINATION    = 51.6309
RA_OF_ASC_NODE = 190.4017
ARG_OF_PERICENTER = 198.7080
MEAN_ANOMALY   = 161.3776

EPHEMERIS_TYPE = 0
CLASSIFICATION_TYPE = U
NORAD_CAT_ID   = 66174
ELEMENT_SET_NO = 999
REV_AT_EPOCH   = 51
BSTAR          = .21764811E-3
MEAN_MOTION_DOT = .1167E-3
MEAN_MOTION_DDOT = 0

